{
  "norad_id": 53183,
  "name": "STARLINK-4268",
  "history": [
    {
      "epoch": "2026-03-28T14:33:55.702080Z",
      "apogee_km": 540.7507820931651,
      "perigee_km": 538.71277795057,
      "latitude_deg": 2.3320450601419937e-05,
      "longitude_deg": -0.3971931861311952,
      "height_km": 540.5751401260887,
      "semi_major_axis_km": 6917.868780021867,
      "eccentricity": 0.0001473,
      "inclination_deg": 53.219,
      "raan_deg": 44.1098,
      "arg_perigee_deg": 87.0546,
      "mean_anomaly_deg": 273.0615,
      "mean_motion_rev_day": 15.08843798
    },
    {
      "epoch": "2026-03-29T03:17:00.133440Z",
      "apogee_km": 540.6046159229609,
      "perigee_km": 538.8267277862942,
      "latitude_deg": -2.7955026703125594e-05,
      "longitude_deg": 165.9321991121843,
      "height_km": 540.6356219844481,
      "semi_major_axis_km": 6917.852671854627,
      "eccentricity": 0.0001285,
      "inclination_deg": 53.2181,
      "raan_deg": 41.73,
      "arg_perigee_deg": 91.5508,
      "mean_anomaly_deg": 268.5631,
      "mean_motion_rev_day": 15.08849068
    },
    {
      "epoch": "2026-03-30T03:07:47.958816Z",
      "apogee_km": 540.7187505866204,
      "perigee_km": 538.7983427828603,
      "latitude_deg": 1.5200416645825018e-06,
      "longitude_deg": 162.79370340799048,
      "height_km": 540.7741756817395,
      "semi_major_axis_km": 6917.89554668474,
      "eccentricity": 0.0001388,
      "inclination_deg": 53.2183,
      "raan_deg": 37.2701,
      "arg_perigee_deg": 97.1705,
      "mean_anomaly_deg": 262.9445,
      "mean_motion_rev_day": 15.08835041
    },
    {
      "epoch": "2026-03-30T20:37:02.637984Z",
      "apogee_km": 540.5810710392889,
      "perigee_km": 538.9257582208757,
      "latitude_deg": 9.72397525143749e-06,
      "longitude_deg": -103.50623529598738,
      "height_km": 540.7678598297402,
      "semi_major_axis_km": 6917.890414630082,
      "eccentricity": 0.00011964,
      "inclination_deg": 53.2196,
      "raan_deg": 33.9995,
      "arg_perigee_deg": 98.2154,
      "mean_anomaly_deg": 261.8974,
      "mean_motion_rev_day": 15.0883672
    },
    {
      "epoch": "2026-03-31T20:27:50.701824Z",
      "apogee_km": 540.7070049432305,
      "perigee_km": 538.8862048184264,
      "latitude_deg": -2.254475240259428e-05,
      "longitude_deg": -106.64537245473356,
      "height_km": 540.7809139438007,
      "semi_major_axis_km": 6917.933604880828,
      "eccentricity": 0.0001316,
      "inclination_deg": 53.2205,
      "raan_deg": 29.54,
      "arg_perigee_deg": 95.5601,
      "mean_anomaly_deg": 264.5541,
      "mean_motion_rev_day": 15.0882259
    },
    {
      "epoch": "2026-04-01T12:21:41.965056Z",
      "apogee_km": 540.7617244548273,
      "perigee_km": 538.7596848590993,
      "latitude_deg": -5.970305798394607e-06,
      "longitude_deg": 11.265153780718398,
      "height_km": 540.7632167838734,
      "semi_major_axis_km": 6917.897704656963,
      "eccentricity": 0.0001447,
      "inclination_deg": 53.2209,
      "raan_deg": 26.567,
      "arg_perigee_deg": 96.11,
      "mean_anomaly_deg": 264.0057,
      "mean_motion_rev_day": 15.08834335
    },
    {
      "epoch": "2026-04-02T18:34:01.397856Z",
      "apogee_km": 540.7098873365749,
      "perigee_km": 538.8143829735409,
      "latitude_deg": -4.137562772769391e-06,
      "longitude_deg": -88.70680533569193,
      "height_km": 540.625640786519,
      "semi_major_axis_km": 6917.899135155058,
      "eccentricity": 0.000137,
      "inclination_deg": 53.2199,
      "raan_deg": 20.9165,
      "arg_perigee_deg": 88.0377,
      "mean_anomaly_deg": 272.0772,
      "mean_motion_rev_day": 15.08833867
    },
    {
      "epoch": "2026-04-02T18:34:01.398720Z",
      "apogee_km": 540.7101640525398,
      "perigee_km": 538.814106257576,
      "latitude_deg": -7.800542811103398e-06,
      "longitude_deg": -88.70681166883514,
      "height_km": 540.6256313071978,
      "semi_major_axis_km": 6917.899135155058,
      "eccentricity": 0.00013704,
      "inclination_deg": 53.2199,
      "raan_deg": 20.9165,
      "arg_perigee_deg": 88.0377,
      "mean_anomaly_deg": 272.0772,
      "mean_motion_rev_day": 15.08833867
    },
    {
      "epoch": "2026-04-03T04:06:19.640160Z",
      "apogee_km": 540.7088035263305,
      "perigee_km": 538.7518772130861,
      "latitude_deg": 1.5609277660875725e-06,
      "longitude_deg": 126.04096125123853,
      "height_km": 540.5723723443348,
      "semi_major_axis_km": 6917.8673403697085,
      "eccentricity": 0.00014144,
      "inclination_deg": 53.2196,
      "raan_deg": 19.132,
      "arg_perigee_deg": 86.8458,
      "mean_anomaly_deg": 273.2696,
      "mean_motion_rev_day": 15.08844269
    },
    {
      "epoch": "2026-04-04T02:21:43.264224Z",
      "apogee_km": 540.7696246511068,
      "perigee_km": 538.621775954317,
      "latitude_deg": -1.9827687213388505e-07,
      "longitude_deg": 147.11608165546428,
      "height_km": 540.5657095982983,
      "semi_major_axis_km": 6917.832700302712,
      "eccentricity": 0.00015524,
      "inclination_deg": 53.2197,
      "raan_deg": 14.9696,
      "arg_perigee_deg": 88.6298,
      "mean_anomaly_deg": 271.4872,
      "mean_motion_rev_day": 15.08855602
    },
    {
      "epoch": "2026-04-05T11:44:49.547040Z",
      "apogee_km": 540.8093918059212,
      "perigee_km": 538.6911347259102,
      "latitude_deg": 9.760887401172428e-06,
      "longitude_deg": -1.2752675313182082,
      "height_km": 540.5515521628795,
      "semi_major_axis_km": 6917.887263265916,
      "eccentricity": 0.0001531,
      "inclination_deg": 53.2199,
      "raan_deg": 8.7255,
      "arg_perigee_deg": 84.8836,
      "mean_anomaly_deg": 275.2331,
      "mean_motion_rev_day": 15.08837751
    },
    {
      "epoch": "2026-04-05T21:17:07.556064Z",
      "apogee_km": 540.5951154974173,
      "perigee_km": 538.8116962407839,
      "latitude_deg": 2.4582264763506945e-05,
      "longitude_deg": -146.52142035800554,
      "height_km": 540.0607855438428,
      "semi_major_axis_km": 6917.8404058691,
      "eccentricity": 0.0001289,
      "inclination_deg": 53.2203,
      "raan_deg": 6.9461,
      "arg_perigee_deg": 52.8021,
      "mean_anomaly_deg": 307.3089,
      "mean_motion_rev_day": 15.08853081
    },
    {
      "epoch": "2026-04-06T03:38:38.616576Z",
      "apogee_km": 540.3912779861666,
      "perigee_km": 538.9295473928651,
      "latitude_deg": -1.0272836678823862e-05,
      "longitude_deg": 116.6411947799507,
      "height_km": 540.5284438877281,
      "semi_major_axis_km": 6917.797412689515,
      "eccentricity": 0.00010565,
      "inclination_deg": 53.2186,
      "raan_deg": 5.7493,
      "arg_perigee_deg": 87.7863,
      "mean_anomaly_deg": 272.325,
      "mean_motion_rev_day": 15.08867147
    },
    {
      "epoch": "2026-04-07T00:18:41.797728Z",
      "apogee_km": 540.6144119506262,
      "perigee_km": 538.9095649239152,
      "latitude_deg": -5.402214790134319e-05,
      "longitude_deg": 161.9149191801652,
      "height_km": 540.743317027103,
      "semi_major_axis_km": 6917.89898843727,
      "eccentricity": 0.00012322,
      "inclination_deg": 53.2195,
      "raan_deg": 1.8851,
      "arg_perigee_deg": 95.737,
      "mean_anomaly_deg": 264.3762,
      "mean_motion_rev_day": 15.08833915
    },
    {
      "epoch": "2026-04-07T20:58:42.890592Z",
      "apogee_km": 540.5130585818197,
      "perigee_km": 539.0146412577278,
      "latitude_deg": -4.760545185758975e-05,
      "longitude_deg": -152.80589448285158,
      "height_km": 540.7386772994697,
      "semi_major_axis_km": 6917.9008499197735,
      "eccentricity": 0.0001083,
      "inclination_deg": 53.2192,
      "raan_deg": 358.0176,
      "arg_perigee_deg": 96.0174,
      "mean_anomaly_deg": 264.0941,
      "mean_motion_rev_day": 15.08833306
    },
    {
      "epoch": "2026-04-08T00:09:29.130624Z",
      "apogee_km": 540.5154550351617,
      "perigee_km": 539.0016811269534,
      "latitude_deg": -4.143107261497742e-05,
      "longitude_deg": 158.77826503623362,
      "height_km": 540.6455421603802,
      "semi_major_axis_km": 6917.895568081057,
      "eccentricity": 0.00010941,
      "inclination_deg": 53.2191,
      "raan_deg": 357.425,
      "arg_perigee_deg": 89.2974,
      "mean_anomaly_deg": 270.8143,
      "mean_motion_rev_day": 15.08835034
    },
    {
      "epoch": "2026-04-09T03:11:02.440032Z",
      "apogee_km": 540.5239801214675,
      "perigee_km": 539.0067457752266,
      "latitude_deg": -5.4887431450373846e-05,
      "longitude_deg": 107.22434731253567,
      "height_km": 540.6973445233228,
      "semi_major_axis_km": 6917.902362948347,
      "eccentricity": 0.00010966,
      "inclination_deg": 53.2191,
      "raan_deg": 352.3698,
      "arg_perigee_deg": 92.6994,
      "mean_anomaly_deg": 267.4123,
      "mean_motion_rev_day": 15.08832811
    },
    {
      "epoch": "2026-04-10T01:26:27.178656Z",
      "apogee_km": 540.5494103689352,
      "perigee_km": 538.9823670065898,
      "latitude_deg": 6.322190878610056e-06,
      "longitude_deg": 128.29405530756674,
      "height_km": 540.671652291605,
      "semi_major_axis_km": 6917.902888687762,
      "eccentricity": 0.00011326,
      "inclination_deg": 53.2185,
      "raan_deg": 348.2066,
      "arg_perigee_deg": 90.7044,
      "mean_anomaly_deg": 269.4078,
      "mean_motion_rev_day": 15.08832639
    },
    {
      "epoch": "2026-04-11T20:21:51.799680Z",
      "apogee_km": 540.5212038641421,
      "perigee_km": 538.9881990630975,
      "latitude_deg": -7.605626510680789e-06,
      "longitude_deg": -165.35035195695866,
      "height_km": 540.6425116330736,
      "semi_major_axis_km": 6917.891701463619,
      "eccentricity": 0.0001108,
      "inclination_deg": 53.2179,
      "raan_deg": 340.1776,
      "arg_perigee_deg": 89.38,
      "mean_anomaly_deg": 270.7319,
      "mean_motion_rev_day": 15.08836299
    }
  ]
}